[{"OBJECT_NAME":"STARLINK-32316","OBJECT_ID":"2024-202R","EPOCH":"2025-11-23T11:03:29.308032","MEAN_MOTION":15.27565952,"ECCENTRICITY":9.94e-5,"INCLINATION":43.0058,"RA_OF_ASC_NODE":114.2556,"ARG_OF_PERICENTER":261.1948,"MEAN_ANOMALY":98.8791,"EPHEMERIS_TYPE":0,"CLASSIFICATION_TYPE":"U","NORAD_CAT_ID":61860,"ELEMENT_SET_NO":999,"REV_AT_EPOCH":5912,"BSTAR":-0.00015159,"MEAN_MOTION_DOT":-4.429e-5,"MEAN_MOTION_DDOT":0},{"OBJECT_NAME":"STARLINK-32415","OBJECT_ID":"2024-202S","EPOCH":"2025-11-23T11:37:56.461728","MEAN_MOTION":15.27565331,"ECCENTRICITY":0.0001633,"INCLINATION":43.0027,"RA_OF_ASC_NODE":117.889,"ARG_OF_PERICENTER":278.1027,"MEAN_ANOMALY":81.964,"EPHEMERIS_TYPE":0,"CLASSIFICATION_TYPE":"U","NORAD_CAT_ID":61861,"ELEMENT_SET_NO":999,"REV_AT_EPOCH":5908,"BSTAR":-4.6077e-5,"MEAN_MOTION_DOT":-1.529e-5,"MEAN_MOTION_DDOT":0},{"OBJECT_NAME":"STARLINK-32393","OBJECT_ID":"2024-202T","EPOCH":"2025-11-23T11:32:23.331840","MEAN_MOTION":15.27570958,"ECCENTRICITY":0.0001064,"INCLINATION":43.0028,"RA_OF_ASC_NODE":117.8617,"ARG_OF_PERICENTER":247.4624,"MEAN_ANOMALY":112.6115,"EPHEMERIS_TYPE":0,"CLASSIFICATION_TYPE":"U","NORAD_CAT_ID":61862,"ELEMENT_SET_NO":999,"REV_AT_EPOCH":5909,"BSTAR":2.3638e-5,"MEAN_MOTION_DOT":3.88e-6,"MEAN_MOTION_DDOT":0},{"OBJECT_NAME":"STARLINK-32324","OBJECT_ID":"2024-202U","EPOCH":"2025-11-23T11:49:01.994880","MEAN_MOTION":15.27583269,"ECCENTRICITY":0.0001456,"INCLINATION":43.0023,"RA_OF_ASC_NODE":117.9457,"ARG_OF_PERICENTER":251.4792,"MEAN_ANOMALY":108.5901,"EPHEMERIS_TYPE":0,"CLASSIFICATION_TYPE":"U","NORAD_CAT_ID":61863,"ELEMENT_SET_NO":999,"REV_AT_EPOCH":5908,"BSTAR":-6.189e-6,"MEAN_MOTION_DOT":-4.32e-6,"MEAN_MOTION_DDOT":0},{"OBJECT_NAME":"STARLINK-32318","OBJECT_ID":"2024-202V","EPOCH":"2025-11-23T11:58:17.213376","MEAN_MOTION":15.27588352,"ECCENTRICITY":0.0001273,"INCLINATION":43.0026,"RA_OF_ASC_NODE":117.9956,"ARG_OF_PERICENTER":260.7093,"MEAN_ANOMALY":99.3615,"EPHEMERIS_TYPE":0,"CLASSIFICATION_TYPE":"U","NORAD_CAT_ID":61864,"ELEMENT_SET_NO":999,"REV_AT_EPOCH":5909,"BSTAR":7.4555e-5,"MEAN_MOTION_DOT":1.79e-5,"MEAN_MOTION_DDOT":0},{"OBJECT_NAME":"STARLINK-32401","OBJECT_ID":"2024-202W","EPOCH":"2025-11-23T12:03:50.897088","MEAN_MOTION":15.27573039,"ECCENTRICITY":0.0001555,"INCLINATION":43.0019,"RA_OF_ASC_NODE":118.023,"ARG_OF_PERICENTER":258.3607,"MEAN_ANOMALY":101.707,"EPHEMERIS_TYPE":0,"CLASSIFICATION_TYPE":"U","NORAD_CAT_ID":61865,"ELEMENT_SET_NO":999,"REV_AT_EPOCH":5909,"BSTAR":-0.00013156,"MEAN_MOTION_DOT":-3.88e-5,"MEAN_MOTION_DDOT":0},{"OBJECT_NAME":"STARLINK-32588","OBJECT_ID":"2024-202X","EPOCH":"2025-11-23T10:20:24.133632","MEAN_MOTION":15.27607862,"ECCENTRICITY":0.0001586,"INCLINATION":43.0012,"RA_OF_ASC_NODE":118.3432,"ARG_OF_PERICENTER":263.7495,"MEAN_ANOMALY":96.3176,"EPHEMERIS_TYPE":0,"CLASSIFICATION_TYPE":"U","NORAD_CAT_ID":61866,"ELEMENT_SET_NO":999,"REV_AT_EPOCH":5908,"BSTAR":0.0002121,"MEAN_MOTION_DOT":5.584e-5,"MEAN_MOTION_DDOT":0},{"OBJECT_NAME":"STARLINK-32569","OBJECT_ID":"2024-202Y","EPOCH":"2025-11-23T10:35:14.252352","MEAN_MOTION":15.27571169,"ECCENTRICITY":4.48e-5,"INCLINATION":42.9982,"RA_OF_ASC_NODE":118.4221,"ARG_OF_PERICENTER":302.3487,"MEAN_ANOMALY":57.7321,"EPHEMERIS_TYPE":0,"CLASSIFICATION_TYPE":"U","NORAD_CAT_ID":61867,"ELEMENT_SET_NO":999,"REV_AT_EPOCH":5908,"BSTAR":2.0894e-5,"MEAN_MOTION_DOT":3.13e-6,"MEAN_MOTION_DDOT":0},{"OBJECT_NAME":"STARLINK-11402 [DTC]","OBJECT_ID":"2024-204A","EPOCH":"2025-11-23T19:56:24.552672","MEAN_MOTION":15.69706583,"ECCENTRICITY":8.22e-5,"INCLINATION":53.1583,"RA_OF_ASC_NODE":158.4731,"ARG_OF_PERICENTER":103.8547,"MEAN_ANOMALY":256.2562,"EPHEMERIS_TYPE":0,"CLASSIFICATION_TYPE":"U","NORAD_CAT_ID":61874,"ELEMENT_SET_NO":999,"REV_AT_EPOCH":6087,"BSTAR":2.1687e-5,"MEAN_MOTION_DOT":2.039e-5,"MEAN_MOTION_DDOT":0},{"OBJECT_NAME":"STARLINK-11316 [DTC]","OBJECT_ID":"2024-204B","EPOCH":"2025-11-23T20:03:19.346112","MEAN_MOTION":15.69707007,"ECCENTRICITY":0.0001113,"INCLINATION":53.1588,"RA_OF_ASC_NODE":157.7499,"ARG_OF_PERICENTER":126.9553,"MEAN_ANOMALY":233.1567,"EPHEMERIS_TYPE":0,"CLASSIFICATION_TYPE":"U","NORAD_CAT_ID":61875,"ELEMENT_SET_NO":999,"REV_AT_EPOCH":6029,"BSTAR":2.1166e-5,"MEAN_MOTION_DOT":1.976e-5,"MEAN_MOTION_DDOT":0},{"OBJECT_NAME":"STARLINK-11401 [DTC]","OBJECT_ID":"2024-204C","EPOCH":"2025-11-23T19:49:20.330400","MEAN_MOTION":15.69714042,"ECCENTRICITY":0.0001167,"INCLINATION":53.1598,"RA_OF_ASC_NODE":158.422,"ARG_OF_PERICENTER":83.2777,"MEAN_ANOMALY":276.8373,"EPHEMERIS_TYPE":0,"CLASSIFICATION_TYPE":"U","NORAD_CAT_ID":61876,"ELEMENT_SET_NO":999,"REV_AT_EPOCH":6028,"BSTAR":2.0133e-5,"MEAN_MOTION_DOT":1.851e-5,"MEAN_MOTION_DDOT":0},{"OBJECT_NAME":"STARLINK-11321 [DTC]","OBJECT_ID":"2024-204D","EPOCH":"2025-11-23T22:45:38.925216","MEAN_MOTION":15.69707493,"ECCENTRICITY":9.97e-5,"INCLINATION":53.1596,"RA_OF_ASC_NODE":157.7652,"ARG_OF_PERICENTER":68.1176,"MEAN_ANOMALY":291.9948,"EPHEMERIS_TYPE":0,"CLASSIFICATION_TYPE":"U","NORAD_CAT_ID":61877,"ELEMENT_SET_NO":999,"REV_AT_EPOCH":6029,"BSTAR":1.5079e-5,"MEAN_MOTION_DOT":1.238e-5,"MEAN_MOTION_DDOT":0},{"OBJECT_NAME":"STARLINK-11314 [DTC]","OBJECT_ID":"2024-204E","EPOCH":"2025-11-23T19:35:13.758144","MEAN_MOTION":15.69693443,"ECCENTRICITY":8.33e-5,"INCLINATION":53.1584,"RA_OF_ASC_NODE":158.3582,"ARG_OF_PERICENTER":101.068,"MEAN_ANOMALY":259.0432,"EPHEMERIS_TYPE":0,"CLASSIFICATION_TYPE":"U","NORAD_CAT_ID":61878,"ELEMENT_SET_NO":999,"REV_AT_EPOCH":6028,"BSTAR":9.9956e-6,"MEAN_MOTION_DOT":6.22e-6,"MEAN_MOTION_DDOT":0},{"OBJECT_NAME":"STARLINK-11324 [DTC]","OBJECT_ID":"2024-204F","EPOCH":"2025-11-23T19:28:06.729600","MEAN_MOTION":15.69741763,"ECCENTRICITY":0.0001302,"INCLINATION":53.1602,"RA_OF_ASC_NODE":158.3195,"ARG_OF_PERICENTER":104.8646,"MEAN_ANOMALY":255.2516,"EPHEMERIS_TYPE":0,"CLASSIFICATION_TYPE":"U","NORAD_CAT_ID":61879,"ELEMENT_SET_NO":999,"REV_AT_EPOCH":6028,"BSTAR":7.047e-5,"MEAN_MOTION_DOT":7.968e-5,"MEAN_MOTION_DDOT":0},{"OBJECT_NAME":"STARLINK-11328 [DTC]","OBJECT_ID":"2024-204G","EPOCH":"2025-11-23T19:21:05.368032","MEAN_MOTION":15.69706349,"ECCENTRICITY":0.0001034,"INCLINATION":53.1594,"RA_OF_ASC_NODE":158.2884,"ARG_OF_PERICENTER":104.7981,"MEAN_ANOMALY":255.3152,"EPHEMERIS_TYPE":0,"CLASSIFICATION_TYPE":"U","NORAD_CAT_ID":61880,"ELEMENT_SET_NO":999,"REV_AT_EPOCH":6028,"BSTAR":1.0083e-5,"MEAN_MOTION_DOT":6.33e-6,"MEAN_MOTION_DDOT":0},{"OBJECT_NAME":"STARLINK-11329 [DTC]","OBJECT_ID":"2024-204H","EPOCH":"2025-11-23T19:14:02.124672","MEAN_MOTION":15.69697493,"ECCENTRICITY":0.0001398,"INCLINATION":53.1602,"RA_OF_ASC_NODE":158.2607,"ARG_OF_PERICENTER":64.9747,"MEAN_ANOMALY":295.1416,"EPHEMERIS_TYPE":0,"CLASSIFICATION_TYPE":"U","NORAD_CAT_ID":61881,"ELEMENT_SET_NO":999,"REV_AT_EPOCH":6028,"BSTAR":2.1519e-5,"MEAN_MOTION_DOT":2.017e-5,"MEAN_MOTION_DDOT":0},{"OBJECT_NAME":"STARLINK-11398 [DTC]","OBJECT_ID":"2024-204J","EPOCH":"2025-11-23T19:06:58.298976","MEAN_MOTION":15.69694386,"ECCENTRICITY":0.0001021,"INCLINATION":53.1589,"RA_OF_ASC_NODE":158.2208,"ARG_OF_PERICENTER":109.3488,"MEAN_ANOMALY":250.764,"EPHEMERIS_TYPE":0,"CLASSIFICATION_TYPE":"U","NORAD_CAT_ID":61882,"ELEMENT_SET_NO":999,"REV_AT_EPOCH":6028,"BSTAR":1.6427e-5,"MEAN_MOTION_DOT":1.401e-5,"MEAN_MOTION_DDOT":0},{"OBJECT_NAME":"STARLINK-11383 [DTC]","OBJECT_ID":"2024-204K","EPOCH":"2025-11-23T18:52:49.927872","MEAN_MOTION":15.69706265,"ECCENTRICITY":0.0001205,"INCLINATION":53.1597,"RA_OF_ASC_NODE":158.1568,"ARG_OF_PERICENTER":76.6367,"MEAN_ANOMALY":283.4785,"EPHEMERIS_TYPE":0,"CLASSIFICATION_TYPE":"U","NORAD_CAT_ID":61883,"ELEMENT_SET_NO":999,"REV_AT_EPOCH":6028,"BSTAR":1.9113e-5,"MEAN_MOTION_DOT":1.727e-5,"MEAN_MOTION_DDOT":0},{"OBJECT_NAME":"STARLINK-11359 [DTC]","OBJECT_ID":"2024-204L","EPOCH":"2025-11-23T18:59:53.706912","MEAN_MOTION":15.69708287,"ECCENTRICITY":0.000106,"INCLINATION":53.1598,"RA_OF_ASC_NODE":158.1894,"ARG_OF_PERICENTER":80.675,"MEAN_ANOMALY":279.4388,"EPHEMERIS_TYPE":0,"CLASSIFICATION_TYPE":"U","NORAD_CAT_ID":61884,"ELEMENT_SET_NO":999,"REV_AT_EPOCH":6028,"BSTAR":2.8811e-5,"MEAN_MOTION_DOT":2.903e-5,"MEAN_MOTION_DDOT":0},{"OBJECT_NAME":"STARLINK-11301 [DTC]","OBJECT_ID":"2024-204M","EPOCH":"2025-11-23T18:45:46.006272","MEAN_MOTION":15.69702105,"ECCENTRICITY":0.0001314,"INCLINATION":53.1597,"RA_OF_ASC_NODE":158.119,"ARG_OF_PERICENTER":124.9708,"MEAN_ANOMALY":235.1433,"EPHEMERIS_TYPE":0,"CLASSIFICATION_TYPE":"U","NORAD_CAT_ID":61885,"ELEMENT_SET_NO":999,"REV_AT_EPOCH":6028,"BSTAR":2.4172e-5,"MEAN_MOTION_DOT":2.339e-5,"MEAN_MOTION_DDOT":0},{"OBJECT_NAME":"STARLINK-11351 [DTC]","OBJECT_ID":"2024-204N","EPOCH":"2025-11-23T23:13:46.447680","MEAN_MOTION":15.69690066,"ECCENTRICITY":0.0001865,"INCLINATION":53.1591,"RA_OF_ASC_NODE":157.1523,"ARG_OF_PERICENTER":39.6072,"MEAN_ANOMALY":320.5082,"EPHEMERIS_TYPE":0,"CLASSIFICATION_TYPE":"U","NORAD_CAT_ID":61886,"ELEMENT_SET_NO":999,"REV_AT_EPOCH":6031,"BSTAR":1.6315e-5,"MEAN_MOTION_DOT":1.386e-5,"MEAN_MOTION_DDOT":0},{"OBJECT_NAME":"STARLINK-32410","OBJECT_ID":"2024-204P","EPOCH":"2025-11-24T01:05:10.792320","MEAN_MOTION":15.30202818,"ECCENTRICITY":0.0001301,"INCLINATION":53.16,"RA_OF_ASC_NODE":257.7363,"ARG_OF_PERICENTER":118.8321,"MEAN_ANOMALY":241.281,"EPHEMERIS_TYPE":0,"CLASSIFICATION_TYPE":"U","NORAD_CAT_ID":61887,"ELEMENT_SET_NO":999,"REV_AT_EPOCH":5892,"BSTAR":3.4098e-5,"MEAN_MOTION_DOT":6.51e-6,"MEAN_MOTION_DDOT":0},{"OBJECT_NAME":"STARLINK-32377","OBJECT_ID":"2024-204Q","EPOCH":"2025-11-24T00:54:32.827680","MEAN_MOTION":15.30173194,"ECCENTRICITY":9.35e-5,"INCLINATION":53.1612,"RA_OF_ASC_NODE":257.6942,"ARG_OF_PERICENTER":83.3012,"MEAN_ANOMALY":276.8095,"EPHEMERIS_TYPE":0,"CLASSIFICATION_TYPE":"U","NORAD_CAT_ID":61888,"ELEMENT_SET_NO":999,"REV_AT_EPOCH":5891,"BSTAR":0.00027685,"MEAN_MOTION_DOT":7.843e-5,"MEAN_MOTION_DDOT":0}]
